COMMENT,ORIGINATOR,NORAD_CAT_ID,OBJECT_NAME,OBJECT_TYPE,CLASSIFICATION_TYPE,INTLDES,EPOCH,EPOCH_MICROSECONDS,MEAN_MOTION,ECCENTRICITY,INCLINATION,RA_OF_ASC_NODE,ARG_OF_PERICENTER,MEAN_ANOMALY,EPHEMERIS_TYPE,ELEMENT_SET_NO,REV_AT_EPOCH,BSTAR,MEAN_MOTION_DOT,MEAN_MOTION_DDOT,FILE,TLE_LINE0,TLE_LINE1,TLE_LINE2,OBJECT_ID,OBJECT_NUMBER,SEMIMAJOR_AXIS,PERIOD,APOGEE,PERIGEE,DECAYED
GENERATED VIA SPACETRACK.ORG API,18 SPCS,26998,TIMED,PAYLOAD,U,01055B,9/29/24 19:13,286848,14.92156229,0.0000597,74.0709,51.7541,7.767,352.3522,0,999,23756,0.00052121,0.00005271,0,4509268,0 TIMED,1 26998U 01055B   24273.80094082  .00005271  00000-0  52121-3 0  9993,2 26998  74.0709  51.7541 0000597   7.7670 352.3522 14.92156229237560,2001-055B,26998,6969.351,96.505,591.632,590.799,0
GENERATED VIA SPACETRACK.ORG API,18 SPCS,26998,TIMED,PAYLOAD,U,01055B,9/29/24 19:13,286848,14.92156229,0.0000597,74.0709,51.7541,7.767,352.3522,0,999,23742,0.00052121,0.00005271,0,4509473,0 TIMED,1 26998U 01055B   24273.80094082  .00005271  00000-0  52121-3 0  9993,2 26998  74.0709  51.7541 0000597   7.7670 352.3522 14.92156229237425,2001-055B,26998,6969.351,96.505,591.632,590.799,0
GENERATED VIA SPACETRACK.ORG API,18 SPCS,26998,TIMED,PAYLOAD,U,01055B,9/30/24 9:42,771744,14.92163934,0.0000639,74.0712,50.5451,5.5629,354.5561,0,999,23751,0.00057468,0.00005818,0,4510156,0 TIMED,1 26998U 01055B   24274.40434921  .00005818  00000-0  57468-3 0  9996,2 26998  74.0712  50.5451 0000639   5.5629 354.5561 14.92163934237511,2001-055B,26998,6969.327,96.504,591.637,590.746,0
GENERATED VIA SPACETRACK.ORG API,18 SPCS,26998,TIMED,PAYLOAD,U,01055B,9/30/24 19:21,942944,14.92168972,0.000067,74.0713,49.7391,4.5539,355.565,0,999,23771,0.00057861,0.00005858,0,4510284,0 TIMED,1 26998U 01055B   24274.80661971  .00005858  00000-0  57861-3 0  9998,2 26998  74.0713  49.7391 0000670   4.5539 355.5650 14.92168972237718,2001-055B,26998,6969.311,96.504,591.643,590.709,0
GENERATED VIA SPACETRACK.ORG API,18 SPCS,26998,TIMED,PAYLOAD,U,01055B,9/30/24 19:21,942944,14.92168972,0.000067,74.0713,49.7391,4.5539,355.565,0,999,23757,0.00057861,0.00005858,0,4510507,0 TIMED,1 26998U 01055B   24274.80661971  .00005858  00000-0  57861-3 0  9998,2 26998  74.0713  49.7391 0000670   4.5539 355.5650 14.92168972237572,2001-055B,26998,6969.311,96.504,591.643,590.709,0
GENERATED VIA SPACETRACK.ORG API,18 SPCS,26998,TIMED,PAYLOAD,U,01055B,10/1/24 11:26,663968,14.92176267,0.0000725,74.0717,48.3959,3.9796,356.1392,0,999,23767,0.00054134,0.00005479,0,4511209,0 TIMED,1 26998U 01055B   24275.47706787  .00005479  00000-0  54134-3 0  9996,2 26998  74.0717  48.3959 0000725   3.9796 356.1392 14.92176267237677,2001-055B,26998,6969.288,96.503,591.658,590.648,0
GENERATED VIA SPACETRACK.ORG API,18 SPCS,26998,TIMED,PAYLOAD,U,01055B,10/1/24 19:29,919936,14.92179686,0.000075,74.0719,47.7244,2.2078,357.9108,0,999,23786,0.0005136,0.00005197,0,4511318,0 TIMED,1 26998U 01055B   24275.81229074  .00005197  00000-0  51360-3 0  9998,2 26998  74.0719  47.7244 0000750   2.2078 357.9108 14.92179686237865,2001-055B,26998,6969.278,96.503,591.665,590.62,0
GENERATED VIA SPACETRACK.ORG API,18 SPCS,26998,TIMED,PAYLOAD,U,01055B,10/1/24 19:29,919936,14.92179686,0.000075,74.0719,47.7244,2.2078,357.9108,0,999,23772,0.0005136,0.00005197,0,4511491,0 TIMED,1 26998U 01055B   24275.81229074  .00005197  00000-0  51360-3 0  9998,2 26998  74.0719  47.7244 0000750   2.2078 357.9108 14.92179686237720,2001-055B,26998,6969.278,96.503,591.665,590.62,0
GENERATED VIA SPACETRACK.ORG API,18 SPCS,26998,TIMED,PAYLOAD,U,01055B,10/2/24 11:35,191680,14.92191628,0.0000834,74.072,46.3813,359.1384,0.9798,0,999,23782,0.00074101,0.0000752,0,4512136,0 TIMED,1 26998U 01055B   24276.48273370  .00007520  00000-0  74101-3 0  9990,2 26998  74.0720  46.3813 0000834 359.1384   0.9798 14.92191628237827,2001-055B,26998,6969.24,96.502,591.687,590.524,0
GENERATED VIA SPACETRACK.ORG API,18 SPCS,26998,TIMED,PAYLOAD,U,01055B,10/2/24 19:37,187584,14.9219699,0.0000851,74.0721,45.7097,354.5478,5.5696,0,999,23801,0.00081248,0.00008251,0,4512232,0 TIMED,1 26998U 01055B   24276.81795356  .00008251  00000-0  81248-3 0  9992,2 26998  74.0721  45.7097 0000851 354.5478   5.5696 14.92196990238014,2001-055B,26998,6969.224,96.502,591.682,590.496,0
GENERATED VIA SPACETRACK.ORG API,18 SPCS,26998,TIMED,PAYLOAD,U,01055B,10/2/24 19:37,187584,14.9219699,0.0000851,74.0721,45.7097,354.5478,5.5696,0,999,23787,0.00081248,0.00008251,0,4512457,0 TIMED,1 26998U 01055B   24276.81795356  .00008251  00000-0  81248-3 0  9992,2 26998  74.0721  45.7097 0000851 354.5478   5.5696 14.92196990237877,2001-055B,26998,6969.224,96.502,591.682,590.496,0
GENERATED VIA SPACETRACK.ORG API,18 SPCS,26998,TIMED,PAYLOAD,U,01055B,10/3/24 11:43,968576,14.92202876,0.0000929,74.0723,44.3666,351.4425,8.6741,0,999,23797,0.00070975,0.00007203,0,4512888,0 TIMED,1 26998U 01055B   24277.48839084  .00007203  00000-0  70975-3 0  9994,2 26998  74.0723  44.3666 0000929 351.4425   8.6741 14.92202876237977,2001-055B,26998,6969.205,96.502,591.718,590.423,0
GENERATED VIA SPACETRACK.ORG API,18 SPCS,26998,TIMED,PAYLOAD,U,01055B,10/3/24 19:45,714784,14.92210079,0.0000943,74.0724,43.695,351.2741,8.8425,0,999,23816,0.00085688,0.00008707,0,4513067,0 TIMED,1 26998U 01055B   24277.82360781  .00008707  00000-0  85688-3 0  9992,2 26998  74.0724  43.6950 0000943 351.2741   8.8425 14.92210079238168,2001-055B,26998,6969.183,96.501,591.705,590.391,0
GENERATED VIA SPACETRACK.ORG API,18 SPCS,26998,TIMED,PAYLOAD,U,01055B,10/3/24 19:45,714784,14.92210079,0.0000943,74.0724,43.695,351.2741,8.8425,0,999,23802,0.00085688,0.00008707,0,4513468,0 TIMED,1 26998U 01055B   24277.82360781  .00008707  00000-0  85688-3 0  9992,2 26998  74.0724  43.6950 0000943 351.2741   8.8425 14.92210079238023,2001-055B,26998,6969.183,96.501,591.705,590.391,0
GENERATED VIA SPACETRACK.ORG API,18 SPCS,26998,TIMED,PAYLOAD,U,01055B,10/4/24 11:51,911712,14.92217916,0.0000979,74.0726,42.3519,351.82,8.2967,0,999,23812,0.00078229,0.00007947,0,4514132,0 TIMED,1 26998U 01055B   24278.49403833  .00007947  00000-0  78229-3 0  9990,2 26998  74.0726  42.3519 0000979 351.8200   8.2967 14.92217916238120,2001-055B,26998,6969.158,96.501,591.706,590.341,0
GENERATED VIA SPACETRACK.ORG API,18 SPCS,26998,TIMED,PAYLOAD,U,01055B,10/4/24 18:17,887840,14.92221797,0.0001012,74.0729,41.8147,349.7998,10.3164,0,999,23816,0.00081613,0.00008293,0,4514403,0 TIMED,1 26998U 01055B   24278.76220935  .00008293  00000-0  81613-3 0  9996,2 26998  74.0729  41.8147 0001012 349.7998  10.3164 14.92221797238162,2001-055B,26998,6969.146,96.5,591.717,590.306,0
GENERATED VIA SPACETRACK.ORG API,18 SPCS,26998,TIMED,PAYLOAD,U,01055B,10/5/24 11:59,951104,14.92232943,0.0001071,74.0733,40.3374,348.7961,11.3198,0,999,23841,0.00077958,0.00007922,0,4514889,0 TIMED,1 26998U 01055B   24279.49967536  .00007922  00000-0  77958-3 0  9997,2 26998  74.0733  40.3374 0001071 348.7961  11.3198 14.92232943238418,2001-055B,26998,6969.112,96.5,591.723,590.23,0
GENERATED VIA SPACETRACK.ORG API,18 SPCS,26998,TIMED,PAYLOAD,U,01055B,10/5/24 11:59,951104,14.92232943,0.0001071,74.0733,40.3374,348.7961,11.3198,0,999,23827,0.00077958,0.00007922,0,4515143,0 TIMED,1 26998U 01055B   24279.49967536  .00007922  00000-0  77958-3 0  9997,2 26998  74.0733  40.3374 0001071 348.7961  11.3198 14.92232943238272,2001-055B,26998,6969.112,96.5,591.723,590.23,0
GENERATED VIA SPACETRACK.ORG API,18 SPCS,26998,TIMED,PAYLOAD,U,01055B,10/5/24 18:25,693088,14.92236953,0.0001101,74.0733,39.8003,347.2909,12.8246,0,999,23831,0.00078738,0.00008002,0,4515455,0 TIMED,1 26998U 01055B   24279.76784367  .00008002  00000-0  78738-3 0  9993,2 26998  74.0733  39.8003 0001101 347.2909  12.8246 14.92236953238314,2001-055B,26998,6969.099,96.499,591.732,590.197,0
GENERATED VIA SPACETRACK.ORG API,18 SPCS,26998,TIMED,PAYLOAD,U,01055B,10/6/24 10:31,760768,14.92244597,0.0001146,74.0735,38.4574,347.9542,12.1613,0,999,23841,0.00062181,0.00006311,0,4516175,0 TIMED,1 26998U 01055B   24280.43826112  .00006311  00000-0  62181-3 0  9990,2 26998  74.0735  38.4574 0001146 347.9542  12.1613 14.92244597238418,2001-055B,26998,6969.075,96.499,591.739,590.142,0
GENERATED VIA SPACETRACK.ORG API,18 SPCS,26998,TIMED,PAYLOAD,U,01055B,10/6/24 18:33,673216,14.92249735,0.0001173,74.0735,37.7859,347.901,12.2144,0,999,23860,0.00066557,0.00006759,0,4516284,0 TIMED,1 26998U 01055B   24280.77346844  .00006759  00000-0  66557-3 0  9993,2 26998  74.0735  37.7859 0001173 347.9010  12.2144 14.92249735238606,2001-055B,26998,6969.059,96.499,591.742,590.107,0
GENERATED VIA SPACETRACK.ORG API,18 SPCS,26998,TIMED,PAYLOAD,U,01055B,10/6/24 18:33,673216,14.92249735,0.0001173,74.0735,37.7859,347.901,12.2144,0,999,23846,0.00066557,0.00006759,0,4516522,0 TIMED,1 26998U 01055B   24280.77346844  .00006759  00000-0  66557-3 0  9993,2 26998  74.0735  37.7859 0001173 347.9010  12.2144 14.92249735238460,2001-055B,26998,6969.059,96.499,591.742,590.107,0
GENERATED VIA SPACETRACK.ORG API,18 SPCS,26998,TIMED,PAYLOAD,U,01055B,10/7/24 10:39,194848,14.92259883,0.0001216,74.0734,36.4429,346.728,13.3871,0,999,23856,0.00070947,0.0000721,0,4517222,0 TIMED,1 26998U 01055B   24281.44387957  .00007210  00000-0  70947-3 0  9999,2 26998  74.0734  36.4429 0001216 346.7280  13.3871 14.92259883238567,2001-055B,26998,6969.028,96.498,591.74,590.045,0
GENERATED VIA SPACETRACK.ORG API,18 SPCS,26998,TIMED,PAYLOAD,U,01055B,10/7/24 18:41,826496,14.92264845,0.0001247,74.0734,35.7713,346.5342,13.5807,0,999,23875,0.00073226,0.00007444,0,4517321,0 TIMED,1 26998U 01055B   24281.77908364  .00007444  00000-0  73226-3 0  9998,2 26998  74.0734  35.7713 0001247 346.5342  13.5807 14.92264845238752,2001-055B,26998,6969.012,96.498,591.746,590.008,0
